[{"OBJECT_NAME":"STELLA","OBJECT_ID":"1993-061B","EPOCH":"2026-03-09T22:50:14.153280","MEAN_MOTION":14.2746756,"ECCENTRICITY":0.00067535,"INCLINATION":98.784,"RA_OF_ASC_NODE":132.7988,"ARG_OF_PERICENTER":156.9855,"MEAN_ANOMALY":327.7404,"EPHEMERIS_TYPE":0,"CLASSIFICATION_TYPE":"U","NORAD_CAT_ID":22824,"ELEMENT_SET_NO":999,"REV_AT_EPOCH":69061,"BSTAR":7.617075e-6,"MEAN_MOTION_DOT":-2.6e-7,"MEAN_MOTION_DDOT":0},{"OBJECT_NAME":"METEOR 2-8 DEB","OBJECT_ID":"1982-025AM","EPOCH":"2026-02-11T12:32:59.278848","MEAN_MOTION":14.29220046,"ECCENTRICITY":0.00093496,"INCLINATION":82.5431,"RA_OF_ASC_NODE":336.7273,"ARG_OF_PERICENTER":236.5313,"MEAN_ANOMALY":123.4979,"EPHEMERIS_TYPE":0,"CLASSIFICATION_TYPE":"U","NORAD_CAT_ID":36351,"ELEMENT_SET_NO":999,"REV_AT_EPOCH":70617,"BSTAR":0.0018775499,"MEAN_MOTION_DOT":4.787e-5,"MEAN_MOTION_DDOT":0}]
